{
  "type": "FeatureCollection",
  "features": [
    {
      "type": "Feature",
      "properties": {
        "norad_id": 34540,
        "name": "IRIDIUM 33 DEB",
        "group": "iridium-33-debris",
        "lat": -81.60549814224586,
        "lon": 149.6126618144836,
        "alt_km": 659.4411927867086,
        "timestamp": "2025-12-21T07:34:34.900203+00:00",
        "meta_object_name": "IRIDIUM 33 DEB",
        "meta_object_id": "1997-051JH",
        "meta_epoch": "2025-12-20T20:52:16.995360",
        "meta_mean_motion": 14.75470808,
        "meta_eccentricity": 0.00176753,
        "meta_inclination": 86.3107,
        "meta_ra_of_asc_node": 303.8888,
        "meta_arg_of_pericenter": 131.6109,
        "meta_mean_anomaly": 282.9946,
        "meta_ephemeris_type": 0,
        "meta_classification_type": "U",
        "meta_norad_cat_id": 34540,
        "meta_element_set_no": 999,
        "meta_rev_at_epoch": 89141,
        "meta_bstar": 0.0010029574,
        "meta_mean_motion_dot": 6.861e-05,
        "meta_mean_motion_ddot": 0,
        "tle_line1": "1 34540U 97051JH  25354.86964115  .00006861  00000+0  10030-2 0  9993",
        "tle_line2": "2 34540  86.3107 303.8888 0017675 131.6109 282.9946 14.75470808891415"
      },
      "geometry": {
        "type": "Point",
        "coordinates": [
          149.6126618144836,
          -81.60549814224586
        ]
      }
    },
    {
      "type": "Feature",
      "properties": {
        "norad_id": 34648,
        "name": "IRIDIUM 33 DEB",
        "group": "iridium-33-debris",
        "lat": -61.57388952516437,
        "lon": 105.17903902470756,
        "alt_km": 747.6488118556035,
        "timestamp": "2025-12-21T07:34:34.900213+00:00",
        "meta_object_name": "IRIDIUM 33 DEB",
        "meta_object_id": "1997-051JZ",
        "meta_epoch": "2025-12-20T18:30:44.390304",
        "meta_mean_motion": 14.11711756,
        "meta_eccentricity": 0.01801632,
        "meta_inclination": 86.3909,
        "meta_ra_of_asc_node": 278.7029,
        "meta_arg_of_pericenter": 273.7379,
        "meta_mean_anomaly": 84.3221,
        "meta_ephemeris_type": 0,
        "meta_classification_type": "U",
        "meta_norad_cat_id": 34648,
        "meta_element_set_no": 999,
        "meta_rev_at_epoch": 85074,
        "meta_bstar": 0.004164738,
        "meta_mean_motion_dot": 8.851e-05,
        "meta_mean_motion_ddot": 0,
        "tle_line1": "1 34648U 97051JZ  25354.77134711  .00008851  00000+0  41647-2 0  9992",
        "tle_line2": "2 34648  86.3909 278.7029 0180163 273.7379  84.3221 14.11711756850742"
      },
      "geometry": {
        "type": "Point",
        "coordinates": [
          105.17903902470756,
          -61.57388952516437
        ]
      }
    },
    {
      "type": "Feature",
      "properties": {
        "norad_id": 34651,
        "name": "IRIDIUM 33 DEB",
        "group": "iridium-33-debris",
        "lat": 19.32334756489833,
        "lon": 138.2352514765006,
        "alt_km": 899.6066173384861,
        "timestamp": "2025-12-21T07:34:34.900222+00:00",
        "meta_object_name": "IRIDIUM 33 DEB",
        "meta_object_id": "1997-051KC",
        "meta_epoch": "2025-12-19T16:44:48.420096",
        "meta_mean_motion": 14.25922062,
        "meta_eccentricity": 0.01422464,
        "meta_inclination": 86.2827,
        "meta_ra_of_asc_node": 137.6175,
        "meta_arg_of_pericenter": 181.9677,
        "meta_mean_anomaly": 178.0974,
        "meta_ephemeris_type": 0,
        "meta_classification_type": "U",
        "meta_norad_cat_id": 34651,
        "meta_element_set_no": 999,
        "meta_rev_at_epoch": 85995,
        "meta_bstar": 0.0022061693,
        "meta_mean_motion_dot": 5.865e-05,
        "meta_mean_motion_ddot": 0,
        "tle_line1": "1 34651U 97051KC  25353.69778264  .00005865  00000+0  22062-2 0  9995",
        "tle_line2": "2 34651  86.2827 137.6175 0142246 181.9677 178.0974 14.25922062859957"
      },
      "geometry": {
        "type": "Point",
        "coordinates": [
          138.2352514765006,
          19.32334756489833
        ]
      }
    },
    {
      "type": "Feature",
      "properties": {
        "norad_id": 34652,
        "name": "IRIDIUM 33 DEB",
        "group": "iridium-33-debris",
        "lat": 72.18702618530305,
        "lon": 144.66370521234333,
        "alt_km": 696.3427133970736,
        "timestamp": "2025-12-21T07:34:34.900231+00:00",
        "meta_object_name": "IRIDIUM 33 DEB",
        "meta_object_id": "1997-051KD",
        "meta_epoch": "2025-12-20T16:52:48.078336",
        "meta_mean_motion": 14.62123856,
        "meta_eccentricity": 0.00255005,
        "meta_inclination": 86.3312,
        "meta_ra_of_asc_node": 336.455,
        "meta_arg_of_pericenter": 269.1159,
        "meta_mean_anomaly": 217.3003,
        "meta_ephemeris_type": 0,
        "meta_classification_type": "U",
        "meta_norad_cat_id": 34652,
        "meta_element_set_no": 999,
        "meta_rev_at_epoch": 88600,
        "meta_bstar": 0.00058363699,
        "meta_mean_motion_dot": 2.968e-05,
        "meta_mean_motion_ddot": 0,
        "tle_line1": "1 34652U 97051KD  25354.70333424  .00002968  00000+0  58364-3 0  9990",
        "tle_line2": "2 34652  86.3312 336.4550 0025500 269.1159 217.3003 14.62123856886002"
      },
      "geometry": {
        "type": "Point",
        "coordinates": [
          144.66370521234333,
          72.18702618530305
        ]
      }
    },
    {
      "type": "Feature",
      "properties": {
        "norad_id": 34690,
        "name": "IRIDIUM 33 DEB",
        "group": "iridium-33-debris",
        "lat": 64.62395667214604,
        "lon": -154.411233971467,
        "alt_km": 705.5882493137815,
        "timestamp": "2025-12-21T07:34:34.900240+00:00",
        "meta_object_name": "IRIDIUM 33 DEB",
        "meta_object_id": "1997-051KM",
        "meta_epoch": "2025-12-20T09:52:33.180096",
        "meta_mean_motion": 14.55121329,
        "meta_eccentricity": 0.0009919,
        "meta_inclination": 86.3775,
        "meta_ra_of_asc_node": 33.6571,
        "meta_arg_of_pericenter": 4.2918,
        "meta_mean_anomaly": 57.2138,
        "meta_ephemeris_type": 0,
        "meta_classification_type": "U",
        "meta_norad_cat_id": 34690,
        "meta_element_set_no": 999,
        "meta_rev_at_epoch": 88206,
        "meta_bstar": 0.00029381074,
        "meta_mean_motion_dot": 1.29e-05,
        "meta_mean_motion_ddot": 0,
        "tle_line1": "1 34690U 97051KM  25354.41149514  .00001290  00000+0  29381-3 0  9999",
        "tle_line2": "2 34690  86.3775  33.6571 0009919   4.2918  57.2138 14.55121329882060"
      },
      "geometry": {
        "type": "Point",
        "coordinates": [
          -154.411233971467,
          64.62395667214604
        ]
      }
    },
    {
      "type": "Feature",
      "properties": {
        "norad_id": 34693,
        "name": "IRIDIUM 33 DEB",
        "group": "iridium-33-debris",
        "lat": -79.87874629569335,
        "lon": -81.68429963472592,
        "alt_km": 487.4077237906913,
        "timestamp": "2025-12-21T07:34:34.900249+00:00",
        "meta_object_name": "IRIDIUM 33 DEB",
        "meta_object_id": "1997-051KQ",
        "meta_epoch": "2025-12-20T07:28:21.213696",
        "meta_mean_motion": 15.29654599,
        "meta_eccentricity": 0.00122944,
        "meta_inclination": 86.3023,
        "meta_ra_of_asc_node": 300.0572,
        "meta_arg_of_pericenter": 39.2143,
        "meta_mean_anomaly": 113.2582,
        "meta_ephemeris_type": 0,
        "meta_classification_type": "U",
        "meta_norad_cat_id": 34693,
        "meta_element_set_no": 999,
        "meta_rev_at_epoch": 89030,
        "meta_bstar": 0.0032074262,
        "meta_mean_motion_dot": 0.00093319,
        "meta_mean_motion_ddot": 0,
        "tle_line1": "1 34693U 97051KQ  25354.31135664  .00093319  00000+0  32074-2 0  9997",
        "tle_line2": "2 34693  86.3023 300.0572 0012294  39.2143 113.2582 15.29654599890303"
      },
      "geometry": {
        "type": "Point",
        "coordinates": [
          -81.68429963472592,
          -79.87874629569335
        ]
      }
    },
    {
      "type": "Feature",
      "properties": {
        "norad_id": 34696,
        "name": "IRIDIUM 33 DEB",
        "group": "iridium-33-debris",
        "lat": -28.753844768744898,
        "lon": -154.37041475604735,
        "alt_km": 663.5553523395929,
        "timestamp": "2025-12-21T07:34:34.900258+00:00",
        "meta_object_name": "IRIDIUM 33 DEB",
        "meta_object_id": "1997-051KT",
        "meta_epoch": "2025-12-20T03:03:36.896832",
        "meta_mean_motion": 14.65425134,
        "meta_eccentricity": 0.0073881,
        "meta_inclination": 86.1833,
        "meta_ra_of_asc_node": 24.0835,
        "meta_arg_of_pericenter": 142.6074,
        "meta_mean_anomaly": 281.0712,
        "meta_ephemeris_type": 0,
        "meta_classification_type": "U",
        "meta_norad_cat_id": 34696,
        "meta_element_set_no": 999,
        "meta_rev_at_epoch": 86781,
        "meta_bstar": 0.0025217059,
        "meta_mean_motion_dot": 0.00014237,
        "meta_mean_motion_ddot": 0,
        "tle_line1": "1 34696U 97051KT  25354.12751038  .00014237  00000+0  25217-2 0  9991",
        "tle_line2": "2 34696  86.1833  24.0835 0073881 142.6074 281.0712 14.65425134867818"
      },
      "geometry": {
        "type": "Point",
        "coordinates": [
          -154.37041475604735,
          -28.753844768744898
        ]
      }
    }
  ]
}